NORAD_CAT_ID,OBJECT_NAME,OBJECT_TYPE,EPOCH,MEAN_MOTION,ECCENTRICITY,INCLINATION,RA_OF_ASC_NODE,ARG_OF_PERICENTER,MEAN_ANOMALY,BSTAR,MEAN_MOTION_DOT,MEAN_MOTION_DDOT,TLE_LINE0,TLE_LINE1,TLE_LINE2,SEMIMAJOR_AXIS,PERIOD,APOGEE,PERIGEE,DECAYED
53163.0,STARLINK-4104,PAYLOAD,2023-12-16 19:31:07,15.08844015,0.0001598,53.2179,217.9008,115.35,244.7658,1.0687e-05,-1.18e-06,0.0,0 STARLINK-4104,1 53163U 22083AH  23350.81328576 -.00000118  00000-0  10687-4 0  9993,2 53163  53.2179 217.9008 0001598 115.3500 244.7658 15.08844015 79123,6917.868,95.437,540.839,538.628,0.0
53163.0,STARLINK-4104,PAYLOAD,2023-12-16 21:06:30,15.08844627,0.000158,53.2176,217.6024,113.6525,246.4633,2.8076e-05,1.59e-06,0.0,0 STARLINK-4104,1 53163U 22083AH  23350.87952445  .00000159  00000-0  28076-4 0  9992,2 53163  53.2176 217.6024 0001580 113.6525 246.4633 15.08844627 78506,6917.866,95.437,540.824,538.638,0.0
53163.0,STARLINK-4104,PAYLOAD,2023-12-16 22:41:54,15.08843877,0.0001299,53.2167,217.3059,88.0951,272.019,6.3592e-05,7.24e-06,0.0,0 STARLINK-4104,1 53163U 22083AH  23350.94576508  .00000724  00000-0  63592-4 0  9992,2 53163  53.2167 217.3059 0001299  88.0951 272.0190 15.08843877 78516,6917.869,95.437,540.632,538.835,0.0
53163.0,STARLINK-4104,PAYLOAD,2023-12-17 19:21:55,15.08840218,0.0001321,53.2166,213.4402,76.726,283.3879,0.00010601,1.4e-05,0.0,0 STARLINK-4104,1 53163U 22083AH  23351.80688893  .00001400  00000-0  10601-3 0  9993,2 53163  53.2166 213.4402 0001321  76.7260 283.3879 15.08840218 79276,6917.88,95.438,540.659,538.831,0.0
53163.0,STARLINK-4104,PAYLOAD,2023-12-17 22:32:41,15.08845005,0.0001383,53.2167,212.8447,78.0108,282.1039,0.00014942,2.091e-05,0.0,0 STARLINK-4104,1 53163U 22083AH  23351.93936578  .00002091  00000-0  14942-3 0  9992,2 53163  53.2167 212.8447 0001383  78.0108 282.1039 15.08845005 78669,6917.865,95.437,540.687,538.773,0.0
53163.0,STARLINK-4104,PAYLOAD,2023-12-18 20:48:05,15.08842688,0.0001662,53.2163,208.6832,64.7894,295.327,5.0561e-05,5.17e-06,0.0,0 STARLINK-4104,1 53163U 22083AH  23352.86673003  .00000517  00000-0  50561-4 0  9995,2 53163  53.2163 208.6832 0001662  64.7894 295.3270 15.08842688 78803,6917.872,95.437,540.887,538.587,0.0
53163.0,STARLINK-4104,PAYLOAD,2023-12-19 20:38:52,15.08840505,0.0001555,53.2161,204.222,72.6399,287.4763,1.3923e-05,-6.6e-07,0.0,0 STARLINK-4104,1 53163U 22083AH  23353.86033102 -.00000066  00000-0  13923-4 0  9997,2 53163  53.2161 204.2220 0001555  72.6399 287.4763 15.08840505 78954,6917.879,95.438,540.82,538.668,0.0
53163.0,STARLINK-4104,PAYLOAD,2023-12-20 18:54:16,15.08842448,0.0001489,53.2166,200.0583,93.6736,266.4426,8.3975e-05,1.049e-05,0.0,0 STARLINK-4104,1 53163U 22083AH  23354.78768653  .00001049  00000-0  83975-4 0  9990,2 53163  53.2166 200.0583 0001489  93.6736 266.4426 15.08842448 79726,6917.873,95.437,540.768,538.708,0.0
53163.0,STARLINK-4104,PAYLOAD,2023-12-20 20:29:39,15.08843168,0.000148,53.2165,199.761,92.4219,267.6942,8.9548e-05,1.138e-05,0.0,0 STARLINK-4104,1 53163U 22083AH  23354.85392613  .00001138  00000-0  89548-4 0  9998,2 53163  53.2165 199.7610 0001480  92.4219 267.6942 15.08843168 79102,6917.871,95.437,540.76,538.712,0.0
53163.0,STARLINK-4104,PAYLOAD,2023-12-21 20:20:26,15.08837846,0.0001376,53.2165,195.2988,95.2377,264.8772,4.5468e-05,4.36e-06,0.0,0 STARLINK-4104,1 53163U 22083AH  23355.84753105  .00000436  00000-0  45468-4 0  9998,2 53163  53.2165 195.2988 0001376  95.2377 264.8772 15.08837846 79253,6917.887,95.438,540.704,538.8,0.0
53163.0,STARLINK-4104,PAYLOAD,2023-12-22 18:35:50,15.08839325,0.0001353,53.2164,191.1354,101.1565,258.9579,2.5301e-05,1.15e-06,0.0,0 STARLINK-4104,1 53163U 22083AH  23356.77489176  .00000115  00000-0  25301-4 0  9993,2 53163  53.2164 191.1354 0001353 101.1565 258.9579 15.08839325 79393,6917.882,95.438,540.683,538.811,0.0
53163.0,STARLINK-4104,PAYLOAD,2023-12-23 12:05:05,15.08836595,0.0001259,53.2163,187.8652,97.1565,262.957,5.4543e-05,5.8e-06,0.0,0 STARLINK-4104,1 53163U 22083AH  23357.50353421  .00000580  00000-0  54543-4 0  9994,2 53163  53.2163 187.8652 0001259  97.1565 262.9570 15.08836595 80130,6917.891,95.438,540.627,538.885,0.0
53163.0,STARLINK-4104,PAYLOAD,2023-12-23 18:26:37,15.08837864,0.0001241,53.2164,186.6759,95.6595,264.4539,5.7424e-05,6.26e-06,0.0,0 STARLINK-4104,1 53163U 22083AH  23357.76849394  .00000626  00000-0  57424-4 0  9993,2 53163  53.2164 186.6759 0001241  95.6595 264.4539 15.08837864 79548,6917.887,95.438,540.61,538.893,0.0
53163.0,STARLINK-4104,PAYLOAD,2023-12-23 23:12:47,15.08838788,0.0001247,53.2164,185.7837,96.2524,263.8611,6.1902e-05,6.97e-06,0.0,0 STARLINK-4104,1 53163U 22083AH  23357.96721355  .00000697  00000-0  61902-4 0  9995,2 53163  53.2164 185.7837 0001247  96.2524 263.8611 15.08838788 79573,6917.884,95.438,540.612,538.886,0.0
53163.0,STARLINK-4104,PAYLOAD,2023-12-24 19:52:47,15.08840997,0.0001245,53.2164,181.9178,96.1592,263.9542,9.5336e-05,1.23e-05,0.0,0 STARLINK-4104,1 53163U 22083AH  23358.82833233  .00001230  00000-0  95336-4 0  9992,2 53163  53.2164 181.9178 0001245  96.1592 263.9542 15.08840997 80336,6917.877,95.437,540.604,538.881,0.0
53163.0,STARLINK-4104,PAYLOAD,2023-12-24 21:28:10,15.08843282,0.0001263,53.2165,181.6202,96.8793,263.2343,0.00011557,1.552e-05,0.0,0 STARLINK-4104,1 53163U 22083AH  23358.89457057  .00001552  00000-0  11557-3 0  9994,2 53163  53.2165 181.6202 0001263  96.8793 263.2343 15.08843282 79714,6917.87,95.437,540.609,538.862,0.0
53163.0,STARLINK-4104,PAYLOAD,2023-12-25 21:18:58,15.0881784,0.000135,53.217,177.1582,99.8948,260.2196,0.00044837,6.851e-05,0.0,0 STARLINK-4104,1 53163U 22083AH  23359.88817973  .00006851  00000-0  44837-3 0  9995,2 53163  53.2170 177.1582 0001350  99.8948 260.2196 15.08817840 79863,6917.948,95.439,540.747,538.879,0.0
53163.0,STARLINK-4104,PAYLOAD,2023-12-26 11:37:26,15.08838565,0.0001295,53.2156,174.4846,100.9513,259.1625,4.6264e-05,4.48e-06,0.0,0 STARLINK-4104,1 53163U 22083AH  23360.48433535  .00000448  00000-0  46264-4 0  9994,2 53163  53.2156 174.4846 0001295 100.9513 259.1625 15.08838565 80582,6917.885,95.438,540.646,538.854,0.0
53163.0,STARLINK-4104,PAYLOAD,2023-12-26 17:58:58,15.08842355,0.0001225,53.2155,173.2955,95.1246,264.9886,2.7241e-05,1.46e-06,0.0,0 STARLINK-4104,1 53163U 22083AH  23360.74929335  .00000146  00000-0  27241-4 0  9990,2 53163  53.2155 173.2955 0001225  95.1246 264.9886 15.08842355 79998,6917.873,95.437,540.586,538.891,0.0
53163.0,STARLINK-4104,PAYLOAD,2023-12-27 11:28:13,15.08840588,0.0001248,53.2158,170.0243,92.2866,267.8269,6.807e-05,7.96e-06,0.0,0 STARLINK-4104,1 53163U 22083AH  23361.47793269  .00000796  00000-0  68070-4 0  9992,2 53163  53.2158 170.0243 0001248  92.2866 267.8269 15.08840588 80105,6917.879,95.438,540.607,538.88,0.0
53163.0,STARLINK-4104,PAYLOAD,2023-12-27 17:49:45,15.08842843,0.0001277,53.2156,168.8348,92.8199,267.294,4.8585e-05,4.85e-06,0.0,0 STARLINK-4104,1 53163U 22083AH  23361.74289177  .00000485  00000-0  48585-4 0  9994,2 53163  53.2156 168.8348 0001277  92.8199 267.2940 15.08842843 80770,6917.872,95.437,540.62,538.853,0.0
53163.0,STARLINK-4104,PAYLOAD,2023-12-28 14:29:46,15.08839791,0.0001269,53.2159,164.9695,85.3026,274.8111,4.5566e-05,4.37e-06,0.0,0 STARLINK-4104,1 53163U 22083AH  23362.60401345  .00000437  00000-0  45566-4 0  9996,2 53163  53.2159 164.9695 0001269  85.3026 274.8111 15.08839791 80279,6917.881,95.438,540.624,538.868,0.0
53163.0,STARLINK-4104,PAYLOAD,2023-12-28 17:40:32,15.08840888,0.0001246,53.2163,164.3748,84.4034,275.7101,5.0015e-05,5.08e-06,0.0,0 STARLINK-4104,1 53163U 22083AH  23362.73649255  .00000508  00000-0  50015-4 0  9998,2 53163  53.2163 164.3748 0001246  84.4034 275.7101 15.08840888 80291,6917.878,95.437,540.605,538.881,0.0
53163.0,STARLINK-4104,PAYLOAD,2023-12-29 14:20:34,15.08836904,0.0001367,53.2176,160.5099,95.317,264.7978,1.2433e-05,-9e-07,0.0,0 STARLINK-4104,1 53163U 22083AH  23363.59761643 -.00000090  00000-0  12433-4 0  9998,2 53163  53.2176 160.5099 0001367  95.3170 264.7978 15.08836904 80427,6917.89,95.438,540.701,538.809,0.0
53163.0,STARLINK-4104,PAYLOAD,2023-12-29 17:31:20,15.08837829,0.0001283,53.2166,159.9139,77.391,282.7225,5.5035e-06,-2e-06,0.0,0 STARLINK-4104,1 53163U 22083AH  23363.73009655 -.00000200  00000-0  55035-5 0  9991,2 53163  53.2166 159.9139 0001283  77.3910 282.7225 15.08837829 81076,6917.887,95.438,540.64,538.864,0.0
53163.0,STARLINK-4104,PAYLOAD,2023-12-30 14:11:21,15.08839196,0.0001256,53.217,156.0478,74.5729,285.5402,3.2267e-05,2.26e-06,0.0,0 STARLINK-4104,1 53163U 22083AH  23364.59121582  .00000226  00000-0  32267-4 0  9998,2 53163  53.2170 156.0478 0001256  74.5729 285.5402 15.08839196 80573,6917.883,95.438,540.617,538.879,0.0
53163.0,STARLINK-4104,PAYLOAD,2023-12-30 17:22:07,15.08842555,0.000127,53.2169,155.4529,77.0434,283.07,5.8946e-05,6.5e-06,0.0,0 STARLINK-4104,1 53163U 22083AH  23364.72369279  .00000650  00000-0  58946-4 0  9993,2 53163  53.2169 155.4529 0001270  77.0434 283.0700 15.08842555 80597,6917.873,95.437,540.616,538.859,0.0
53163.0,STARLINK-4104,PAYLOAD,2023-12-31 09:15:59,15.08784495,0.0001528,53.2162,152.4815,78.3134,281.803,0.00064061,9.907e-05,0.0,0 STARLINK-4104,1 53163U 22083AH  23365.38610131  .00009907  00000-0  64061-3 0  9990,2 53163  53.2162 152.4815 0001528  78.3134 281.8030 15.08784495 81324,6918.05,95.441,540.972,538.858,0.0
53163.0,STARLINK-4104,PAYLOAD,2023-12-31 15:37:31,15.08833213,0.0001264,53.2167,151.2903,79.8831,280.2303,8.7872e-06,-1.48e-06,0.0,0 STARLINK-4104,1 53163U 22083AH  23365.65106251 -.00000148  00000-0  87872-5 0  9999,2 53163  53.2167 151.2903 0001264  79.8831 280.2303 15.08833213 81364,6917.901,95.438,540.641,538.892,0.0
53163.0,STARLINK-4104,PAYLOAD,2024-01-01 13:52:55,15.08838233,0.0001272,53.217,147.1273,84.1058,276.0079,6.8795e-06,-1.78e-06,0.0,0 STARLINK-4104,1 53163U 22083AH  24001.57842178 -.00000178  00000-0  68795-5 0  9999,2 53163  53.2170 147.1273 0001272  84.1058 276.0079 15.08838233 80876,6917.886,95.438,540.631,538.871,0.0
